1   465U 61015FB  18212.90752968 +.00000033 +00000-0 +45727-4 0  9993
2   465 066.3168 033.5396 0035673 354.1849 005.8827 14.31457290933443
1   467U 61015FD  18212.74281028 +.00001033 +00000-0 +14160-2 0  9997
2   467 066.5566 252.1044 0268886 270.7987 086.2271 13.48749403892085
1   469U 61015FF  18212.76849558 +.00000084 +00000-0 +65495-4 0  9993
2   469 066.8355 086.5228 0069349 205.1781 154.5932 14.28460103941484
1 00470U 61015FG  18213.48487714  .00000162  00000-0  14823-3 0  9992
2 00470  66.2309  90.0163 0078317 256.0611 103.1751 14.05142476908329
1 00474U 61015FL  18213.52465778  .00000731  00000-0  11882-3 0  9991
2 00474  66.2470 337.8791 0030892 305.1345 173.9978 14.77415311965135
1 00475U 61015FM  18213.34660459 -.00000052  00000-0  17178-4 0  9997
2 00475  66.2281 292.8801 0144043  51.1739 310.2101 14.10310891881424
1   478U 61015FQ  18212.76762314 +.00000165 +00000-0 +59474-4 0  9997
2   478 066.0724 066.1116 0061049 302.4337 057.0873 14.56942042962395
1 00479U 61015FR  18213.07923155  .00002225  00000-0  24019-3 0  9990
2 00479  66.6783 187.2039 0020336 268.6519  91.2280 14.90397866941615
1 00480U 61015FS  18212.15629027  .00000206  00000-0  10390-3 0  9995
2 00480  66.2373 241.0652 0086203 165.9595 194.3927 14.32858607942105
1 00510U 62049C   18213.17959907  .00000038  00000-0  33650-4 0  9991
2 00510  80.5134 279.7573 0014921 333.5485  59.7413 13.69700381789200
1   511U 62049D   18212.83377690 +.00000039 +00000-0 +34932-4 0  9992
2   511 080.4291 164.5080 0031414 175.1142 215.1445 13.68199033786063
1 00530U 61015FU  18213.14818471 -.00000049  00000-0  19771-4 0  9993
2 00530  66.8780 221.2177 0073149  88.5291 272.4170 13.98225483905826
1 04634U 70091L   18213.12915574  .00000308  00000-0  86677-4 0  9992
2 04634  62.7956  65.6997 0605451  51.4718 313.9020 13.88324577343054
1 04638U 70025W   18213.46672350  .00002740  00000-0  56092-3 0  9991
2 04638 100.0009  47.3286 0017015 202.6876 157.3568 14.61798914439885
1 04639U 70025X   18213.52646013 -.00000024  00000-0  36101-4 0  9990
2 04639  99.9720 322.7255 0115040  99.4368 321.3859 13.32436509346567
1 04640U 70025Y   18213.39144042 -.00000017  00000-0  45394-4 0  9998
2 04640  99.7827   4.7613 0121830  52.1042 341.0074 13.37099138347870
1 04645U 70025AD  18212.90908837  .00000075  00000-0  35155-3 0  9995
2 04645  99.8847 178.7521 0330447 112.4163 275.7919 12.85989320266018
1  4649U 70025AH  18212.83574943 +.00000612 +00000-0 +96670-4 0  9995
2  4649 099.8826 229.3743 0083897 101.7307 259.3324 14.75150361500995
1 04650U 70025AJ  18213.11122328  .00000049  00000-0  58167-4 0  9998
2 04650  99.8984  38.9097 0121818   0.8371 359.2976 14.05584560453416
1 04651U 70025AK  18212.87996466  .00000264  00000-0  22835-3 0  9994
2 04651 100.1471 183.2523 0050315 158.7377 201.5887 13.96019837434063
1 04652U 70025AL  18212.64234170  .00000046  00000-0  81782-4 0  9992
2 04652  99.6038 265.5855 0030859 304.5825 213.8575 13.85034726418779
1  4653U 70025AM  18212.89603564 +.00000651 +00000-0 +28460-3 0  9992
2  4653 100.0242 017.7591 0030526 184.8295 175.2591 14.27787125453806
1 04654U 70025AN  18212.96948311  .00000296  00000-0  21912-3 0  9993
2 04654 100.0439  30.2414 0029629 304.0664  55.7688 14.04260948435507
1  4655U 70025AP  18212.33376300 -.00000054 +00000-0 -66958-5 0  9993
2  4655 100.0153 166.5435 0053700 233.9979 293.7251 13.67878502404205
1 04658U 70025AS  18212.66817470  .00000077  00000-0  10092-3 0  9999
2 04658  99.9176 289.7455 0024678 261.0060  98.8303 13.91385371418025
1 04659U 70025AT  18213.56932674  .00000281  00000-0  29268-3 0  9996
2 04659 100.1276  59.1221 0009707 217.8572 142.1899 13.85175914410045
1 04667U 70089K   18212.59516317  .00000191  00000-0  11089-3 0  9991
2 04667  62.9456  63.4474 0676578 195.3570 162.5990 13.50990978299085
1 04668U 70089L   18213.39978775 -.00000102  00000-0  30603-5 0  9999
2 04668  62.9520 306.4436 1029729  82.0446 289.5953 12.86422235239910
1 04672U 70025AV  18211.68502775  .00000037  00000-0  11781-3 0  9997
2 04672  99.6757 110.7456 0039577  93.1895 296.1189 13.54174144380151
1  4677U 70025BA  18212.76987175 +.00000069 +00000-0 +16302-3 0  9992
2  4677 100.1389 241.7750 0010101 113.9898 295.5666 13.57425305388065
1 04679U 70025BC  18212.98086435  .00000071  00000-0  14513-3 0  9992
2 04679 100.1948 219.2268 0016479 243.6367 144.8400 13.66278646397569
1 04681U 70025BE  18213.37047722  .00000346  00000-0  99044-3 0  9992
2 04681  99.8592 262.7122 0246887 165.9495 259.2986 13.07408486299584
1 04683U 70025BG  18213.53216156  .00000045  00000-0  17550-3 0  9999
2 04683 100.3073 162.2835 0125533  21.3300  41.3704 13.33517724344389
1 04686U 70025BK  18213.06660972 -.00000097  00000-0 -69349-4 0  9992
2 04686 100.2238 155.6773 0037268 348.6583  72.4192 13.55808075381109
1  4688U 70025BM  18212.92002194 +.00000012 +00000-0 +90576-4 0  9995
2  4688 100.2413 208.8631 0021925 136.0276 254.2846 13.52602408378630
1 04689U 70025BN  18213.19010354  .00000061  00000-0  14984-3 0  9995
2 04689  99.6576 111.2585 0071686  66.7948  86.6439 13.54708349381183
1 04698U 70089Q   18212.50986231  .00000022  00000-0  77238-4 0  9994
2 04698  63.1330 182.2133 0598294 314.3550  40.9892 13.38255196288028
1 04699U 70089R   18212.22729842  .00000154  00000-0  72873-4 0  9993
2 04699  62.9551 124.4292 0409109 237.9956 118.0737 14.12803410300268
1 04705U 70025BT  18212.54380590 -.00000018  00000-0  41657-4 0  9995
2 04705 100.1280 247.2554 0044962 189.8079 337.5979 13.56631812380354
1 04706U 70025BU  18213.00725792 -.00000019  00000-0  43982-4 0  9999
2 04706  99.9537 116.9025 0033349 246.9436 182.0738 13.45440963370919
1 04708U 70025BW  18212.81600875  .00000310  00000-0  33920-3 0  9996
2 04708 100.0692  65.9314 0073035  22.6421  37.7784 13.80120348397917
1 04709U 70025BX  18212.95707355  .00000198  00000-0  78345-4 0  9998
2 04709 100.0254 301.0773 0099686 118.5782 242.5476 14.39427502488125
1 04710U 70025BY  18213.27785764  .00000071  00000-0  17042-3 0  9992
2 04710  99.9416 131.5087 0005800  84.0761  77.3080 13.54774623384255
1  4711U 70089S   18212.95255479 +.00000010 +00000-0 +64160-4 0  9999
2  4711 063.1605 014.9574 0674366 275.2192 077.2270 13.29604086271583
1  4712U 70091T   18212.62026792 +.00000480 +00000-0 +11413-3 0  9994
2  4712 062.7762 045.4291 0606982 106.3001 260.5657 13.89383897342282
1 04715U 70025BZ  18213.45722488 -.00000570  00000-0 -48942-3 0  9990
2 04715  99.3170 296.2881 0036671 193.5508 226.8830 13.81648714416775
1  4717U 70025CB  18212.87404876 +.00000001 +00000-0 +70013-4 0  9997
2  4717 100.0964 174.9556 0003462 108.5671 276.4130 13.54223273383886
1  4718U 70025CC  18211.80725111 +.00000377 +00000-0 +27162-3 0  9990
2  4718 100.0270 348.2393 0105080 353.4431 006.5350 14.01424370450612
1  4720U 70025CE  18212.94877708 -.00000197 +00000-0 -95944-4 0  9995
2  4720 100.0383 207.6749 0087576 091.1174 270.0022 13.99884305447403
1  4723U 70091U   18212.93803453 +.00000415 +00000-0 +57081-4 0  9997
2  4723 062.7373 049.5992 0200092 340.4807 018.8694 14.81350582405050
1  4727U 70091Y   18212.93736169 +.00000468 +00000-0 +11027-3 0  9997
2  4727 062.6869 051.0882 0569306 071.3640 294.8330 13.97180877349571
1 04733U 70025CG  18212.14878795  .00000205  00000-0  63994-4 0  9996
2 04733  99.9152  35.4981 0123944  97.8824 263.6454 14.49580433507570
1  4734U 70025CH  18212.90442927 +.00000101 +00000-0 +13535-3 0  9995
2  4734 100.1781 028.2371 0083090 260.5912 098.5838 13.83492028424412
1 04735U 70025CJ  18212.38632792  .00000517  00000-0  16476-3 0  9997
2 04735  99.6540  99.2994 0055219   6.7188 353.4726 14.44032758477059
1  4737U 70025CL  18212.67864976 +.00000659 +00000-0 +39299-3 0  9997
2  4737 099.0123 118.8600 0037167 342.6798 017.3102 14.10542631440036
1  4738U 70025CM  18212.91919994 +.00000123 +00000-0 +10856-3 0  9990
2  4738 100.1025 195.7250 0053981 128.0227 232.5827 14.04664667435320
1 04739U 70025CN  18213.22819774  .00000305  00000-0  29443-3 0  9995
2 04739  99.9521 194.1008 0004859  71.1315 358.9324 13.88797758414340
1 04741U 70025CQ  18212.34737741  .00000028  00000-0  31558-3 0  9995
2 04741 100.2772 163.4558 0787172 173.7545 346.1770 11.94044049106116
1  4742U 70025CR  18212.87063894 +.00000015 +00000-0 +91773-4 0  9997
2  4742 100.0789 174.3477 0020526 015.9106 010.6915 13.53510002380670
1  4745U 70025CU  18212.07802420 +.00000184 +00000-0 +18798-3 0  9990
2  4745 100.1050 251.6201 0028553 026.1535 002.3319 13.90812657420467
1  4746U 70025CV  18212.82442069 +.00002196 +00000-0 +40491-3 0  9993
2  4746 099.9851 164.0068 0007080 142.3599 217.8096 14.66873007462723
1  4748U 70025CW  18212.59333562 +.00000075 +00000-0 +15815-3 0  9992
2  4748 100.0533 266.4488 0007073 139.1937 029.8540 13.62250686390925
1 04751U 70025CZ  18213.54620646  .00000283  00000-0  31336-3 0  9991
2 04751 100.1584  51.7240 0004321 315.3842  61.8282 13.81493845408154
1 04752U 70025DA  18212.96537949  .00000613  00000-0  42525-3 0  9999
2 04752  99.9078  49.2498 0027463 350.3090   9.7540 14.03186043429796
1  4753U 70025DB  18212.76511902 +.00000243 +00000-0 +28608-3 0  9994
2  4753 099.9706 134.3305 0004316 201.5523 177.3240 13.78942893405694
1  4754U 70025DC  18212.60377316 +.00000574 +00000-0 +35328-3 0  9991
2  4754 099.6082 265.7241 0018312 036.3873 323.8536 14.09966613426274
1 04755U 70025DD  18212.62567226  .00000313  00000-0  30668-3 0  9998
2 04755 100.1230 124.9068 0006242 357.7117 120.0409 13.87849011411100
1  4756U 70025DE  18212.29724757 +.00000013 +00000-0 +94262-4 0  9994
2  4756 100.0690 144.6560 0027996 344.8865 167.6277 13.48688133374091
1 04757U 70025DF  18213.52173878  .00000064  00000-0  14081-3 0  9990
2 04757  99.6620 106.5073 0011663 217.9437 265.1465 13.61778156389452
1 04759U 70025DH  18213.06197299  .00000128  00000-0  19599-3 0  9994
2 04759 100.0602  52.6923 0003758  56.1155 102.0418 13.71763381400795
1 04764U 70025DJ  18213.48786943  .00000801  00000-0  50195-3 0  9991
2 04764  99.5440  39.2371 0042957 203.8349 156.0829 14.07337692419675
